CCSDS_OMM_VERS = 2.0
CREATION_DATE  = 
ORIGINATOR     = 

OBJECT_NAME    = STARLINK-35732
OBJECT_ID      = 2025-294H
CENTER_NAME    = EARTH
REF_FRAME      = TEME
TIME_SYSTEM    = UTC
MEAN_ELEMENT_THEORY = SGP/SGP4

EPOCH          = 2026-01-08T03:33:52.478784
MEAN_MOTION    = 15.43120254
ECCENTRICITY   = .0001316
INCLINATION    = 43.0008
RA_OF_ASC_NODE = 24.0143
ARG_OF_PERICENTER = 301.7462
MEAN_ANOMALY   = 58.3267

EPHEMERIS_TYPE = 0
CLASSIFICATION_TYPE = U
NORAD_CAT_ID   = 67037
ELEMENT_SET_NO = 999
REV_AT_EPOCH   = 549
BSTAR          = -.67131E-2
MEAN_MOTION_DOT = -.293084E-2
MEAN_MOTION_DDOT = 0

CCSDS_OMM_VERS = 2.0
CREATION_DATE  = 
ORIGINATOR     = 

OBJECT_NAME    = STARLINK-35775
OBJECT_ID      = 2025-294J
CENTER_NAME    = EARTH
REF_FRAME      = TEME
TIME_SYSTEM    = UTC
MEAN_ELEMENT_THEORY = SGP/SGP4

EPOCH          = 2026-01-08T04:00:01.998720
MEAN_MOTION    = 15.40694817
ECCENTRICITY   = .0002184
INCLINATION    = 43.0010
RA_OF_ASC_NODE = 24.1153
ARG_OF_PERICENTER = 238.2532
MEAN_ANOMALY   = 137.3276

EPHEMERIS_TYPE = 0
CLASSIFICATION_TYPE = U
NORAD_CAT_ID   = 67038
ELEMENT_SET_NO = 999
REV_AT_EPOCH   = 445
BSTAR          = .60377E-3
MEAN_MOTION_DOT = .24996E-3
MEAN_MOTION_DDOT = 0

CCSDS_OMM_VERS = 2.0
CREATION_DATE  = 
ORIGINATOR     = 

OBJECT_NAME    = STARLINK-35705
OBJECT_ID      = 2025-294K
CENTER_NAME    = EARTH
REF_FRAME      = TEME
TIME_SYSTEM    = UTC
MEAN_ELEMENT_THEORY = SGP/SGP4

EPOCH          = 2026-01-08T01:53:15.061056
MEAN_MOTION    = 15.50618168
ECCENTRICITY   = .0001185
INCLINATION    = 42.9993
RA_OF_ASC_NODE = 24.3462
ARG_OF_PERICENTER = 263.3910
MEAN_ANOMALY   = 96.6815

EPHEMERIS_TYPE = 0
CLASSIFICATION_TYPE = U
NORAD_CAT_ID   = 67039
ELEMENT_SET_NO = 999
REV_AT_EPOCH   = 548
BSTAR          = .15177E-2
MEAN_MOTION_DOT = .8985E-3
MEAN_MOTION_DDOT = 0

CCSDS_OMM_VERS = 2.0
CREATION_DATE  = 
ORIGINATOR     = 

OBJECT_NAME    = STARLINK-35786
OBJECT_ID      = 2025-294L
CENTER_NAME    = EARTH
REF_FRAME      = TEME
TIME_SYSTEM    = UTC
MEAN_ELEMENT_THEORY = SGP/SGP4

EPOCH          = 2026-01-07T12:45:02.994624
MEAN_MOTION    = 15.40735389
ECCENTRICITY   = .00014703
INCLINATION    = 43.0019
RA_OF_ASC_NODE = 27.9868
ARG_OF_PERICENTER = 249.6186
MEAN_ANOMALY   = 110.4513

EPHEMERIS_TYPE = 0
CLASSIFICATION_TYPE = U
NORAD_CAT_ID   = 67040
ELEMENT_SET_NO = 999
REV_AT_EPOCH   = 539
BSTAR          = .89768369E-3
MEAN_MOTION_DOT = .37423E-3
MEAN_MOTION_DDOT = 0

CCSDS_OMM_VERS = 2.0
CREATION_DATE  = 
ORIGINATOR     = 

OBJECT_NAME    = STARLINK-35765
OBJECT_ID      = 2025-294M
CENTER_NAME    = EARTH
REF_FRAME      = TEME
TIME_SYSTEM    = UTC
MEAN_ELEMENT_THEORY = SGP/SGP4

EPOCH          = 2026-01-08T04:00:01.998720
MEAN_MOTION    = 15.46404451
ECCENTRICITY   = .0001091
INCLINATION    = 43.0006
RA_OF_ASC_NODE = 23.8458
ARG_OF_PERICENTER = 279.6511
MEAN_ANOMALY   = 207.3994

EPHEMERIS_TYPE = 0
CLASSIFICATION_TYPE = U
NORAD_CAT_ID   = 67041
ELEMENT_SET_NO = 999
REV_AT_EPOCH   = 433
BSTAR          = -.45125E-1
MEAN_MOTION_DOT = -.2035476E-1
MEAN_MOTION_DDOT = 0

CCSDS_OMM_VERS = 2.0
CREATION_DATE  = 
ORIGINATOR     = 

OBJECT_NAME    = STARLINK-35773
OBJECT_ID      = 2025-294N
CENTER_NAME    = EARTH
REF_FRAME      = TEME
TIME_SYSTEM    = UTC
MEAN_ELEMENT_THEORY = SGP/SGP4

EPOCH          = 2026-01-08T02:35:33.383328
MEAN_MOTION    = 15.40734551
ECCENTRICITY   = .0000792
INCLINATION    = 43.0015
RA_OF_ASC_NODE = 24.5687
ARG_OF_PERICENTER = 236.4218
MEAN_ANOMALY   = 123.6563

EPHEMERIS_TYPE = 0
CLASSIFICATION_TYPE = U
NORAD_CAT_ID   = 67042
ELEMENT_SET_NO = 999
REV_AT_EPOCH   = 548
BSTAR          = .1156E-2
MEAN_MOTION_DOT = .48348E-3
MEAN_MOTION_DDOT = 0

CCSDS_OMM_VERS = 2.0
CREATION_DATE  = 
ORIGINATOR     = 

OBJECT_NAME    = STARLINK-35901
OBJECT_ID      = 2025-294P
CENTER_NAME    = EARTH
REF_FRAME      = TEME
TIME_SYSTEM    = UTC
MEAN_ELEMENT_THEORY = SGP/SGP4

EPOCH          = 2026-01-08T04:00:01.998720
MEAN_MOTION    = 15.40693616
ECCENTRICITY   = .0001021
INCLINATION    = 43.0007
RA_OF_ASC_NODE = 24.0240
ARG_OF_PERICENTER = 268.0479
MEAN_ANOMALY   = 144.8887

EPHEMERIS_TYPE = 0
CLASSIFICATION_TYPE = U
NORAD_CAT_ID   = 67043
ELEMENT_SET_NO = 999
REV_AT_EPOCH   = 453
BSTAR          = .87811E-4
MEAN_MOTION_DOT = .3366E-4
MEAN_MOTION_DDOT = 0

CCSDS_OMM_VERS = 2.0
CREATION_DATE  = 
ORIGINATOR     = 

OBJECT_NAME    = STARLINK-35884
OBJECT_ID      = 2025-294Q
CENTER_NAME    = EARTH
REF_FRAME      = TEME
TIME_SYSTEM    = UTC
MEAN_ELEMENT_THEORY = SGP/SGP4

EPOCH          = 2026-01-08T01:24:47.136960
MEAN_MOTION    = 15.40731197
ECCENTRICITY   = .000033
INCLINATION    = 42.9999
RA_OF_ASC_NODE = 25.0672
ARG_OF_PERICENTER = 179.2842
MEAN_ANOMALY   = 180.8015

EPHEMERIS_TYPE = 0
CLASSIFICATION_TYPE = U
NORAD_CAT_ID   = 67044
ELEMENT_SET_NO = 999
REV_AT_EPOCH   = 547
BSTAR          = .10695E-2
MEAN_MOTION_DOT = .4468E-3
MEAN_MOTION_DDOT = 0

CCSDS_OMM_VERS = 2.0
CREATION_DATE  = 
ORIGINATOR     = 

OBJECT_NAME    = STARLINK-35891
OBJECT_ID      = 2025-294R
CENTER_NAME    = EARTH
REF_FRAME      = TEME
TIME_SYSTEM    = UTC
MEAN_ELEMENT_THEORY = SGP/SGP4

EPOCH          = 2026-01-08T04:00:01.998720
MEAN_MOTION    = 15.40685888
ECCENTRICITY   = .0000843
INCLINATION    = 43.0004
RA_OF_ASC_NODE = 23.9325
ARG_OF_PERICENTER = 269.9073
MEAN_ANOMALY   = 180.3540

EPHEMERIS_TYPE = 0
CLASSIFICATION_TYPE = U
NORAD_CAT_ID   = 67045
ELEMENT_SET_NO = 999
REV_AT_EPOCH   = 445
BSTAR          = .16316E-3
MEAN_MOTION_DOT = .6515E-4
MEAN_MOTION_DDOT = 0

CCSDS_OMM_VERS = 2.0
CREATION_DATE  = 
ORIGINATOR     = 

OBJECT_NAME    = STARLINK-35721
OBJECT_ID      = 2025-294S
CENTER_NAME    = EARTH
REF_FRAME      = TEME
TIME_SYSTEM    = UTC
MEAN_ELEMENT_THEORY = SGP/SGP4

EPOCH          = 2026-01-08T04:00:01.998720
MEAN_MOTION    = 15.41897959
ECCENTRICITY   = .0001695
INCLINATION    = 43.0005
RA_OF_ASC_NODE = 23.8756
ARG_OF_PERICENTER = 273.5782
MEAN_ANOMALY   = 200.8978

EPHEMERIS_TYPE = 0
CLASSIFICATION_TYPE = U
NORAD_CAT_ID   = 67046
ELEMENT_SET_NO = 999
REV_AT_EPOCH   = 453
BSTAR          = -.41816E-1
MEAN_MOTION_DOT = -.1628027E-1
MEAN_MOTION_DDOT = 0

CCSDS_OMM_VERS = 2.0
CREATION_DATE  = 
ORIGINATOR     = 

OBJECT_NAME    = STARLINK-35779
OBJECT_ID      = 2025-294T
CENTER_NAME    = EARTH
REF_FRAME      = TEME
TIME_SYSTEM    = UTC
MEAN_ELEMENT_THEORY = SGP/SGP4

EPOCH          = 2026-01-08T04:00:01.998720
MEAN_MOTION    = 15.40692205
ECCENTRICITY   = .0001014
INCLINATION    = 43.0009
RA_OF_ASC_NODE = 24.2047
ARG_OF_PERICENTER = 256.8139
MEAN_ANOMALY   = 81.4885

EPHEMERIS_TYPE = 0
CLASSIFICATION_TYPE = U
NORAD_CAT_ID   = 67047
ELEMENT_SET_NO = 999
REV_AT_EPOCH   = 433
BSTAR          = .14347E-3
MEAN_MOTION_DOT = .5693E-4
MEAN_MOTION_DDOT = 0

CCSDS_OMM_VERS = 2.0
CREATION_DATE  = 
ORIGINATOR     = 

OBJECT_NAME    = STARLINK-35905
OBJECT_ID      = 2025-294U
CENTER_NAME    = EARTH
REF_FRAME      = TEME
TIME_SYSTEM    = UTC
MEAN_ELEMENT_THEORY = SGP/SGP4

EPOCH          = 2026-01-08T01:05:25.797408
MEAN_MOTION    = 15.40750391
ECCENTRICITY   = .0001121
INCLINATION    = 43.0009
RA_OF_ASC_NODE = 24.9619
ARG_OF_PERICENTER = 266.3386
MEAN_ANOMALY   = 93.7343

EPHEMERIS_TYPE = 0
CLASSIFICATION_TYPE = U
NORAD_CAT_ID   = 67048
ELEMENT_SET_NO = 999
REV_AT_EPOCH   = 547
BSTAR          = .15541E-2
MEAN_MOTION_DOT = .65281E-3
MEAN_MOTION_DDOT = 0

