STARLINK-35732          
1 67037U 25294H   26008.14852406 -.00293084  00000+0 -67131-2 0  9998
2 67037  43.0008  24.0143 0001316 301.7462  58.3267 15.43120254  5494
STARLINK-35775          
1 67038U 25294J   26008.16668980  .00024996  00000+0  60377-3 0  9991
2 67038  43.0010  24.1153 0002184 238.2532 137.3276 15.40694817  4457
STARLINK-35705          
1 67039U 25294K   26008.07864654  .00089850  00000+0  15177-2 0  9995
2 67039  42.9993  24.3462 0001185 263.3910  96.6815 15.50618168  5486
STARLINK-35786          
1 67040U 25294L   26007.53128466  .00037423  00000+0  89768-3 0  9998
2 67040  43.0019  27.9868 0001470 249.6186 110.4513 15.40735389  5391
STARLINK-35765          
1 67041U 25294M   26008.16668980 -.02035476  00000+0 -45125-1 0  9996
2 67041  43.0006  23.8458 0001091 279.6511 207.3994 15.46404451  4333
STARLINK-35773          
1 67042U 25294N   26008.10802527  .00048348  00000+0  11560-2 0  9993
2 67042  43.0015  24.5687 0000792 236.4218 123.6563 15.40734551  5488
STARLINK-35901          
1 67043U 25294P   26008.16668980  .00003366  00000+0  87811-4 0  9998
2 67043  43.0007  24.0240 0001021 268.0479 144.8887 15.40693616  4531
STARLINK-35884          
1 67044U 25294Q   26008.05887890  .00044680  00000+0  10695-2 0  9998
2 67044  42.9999  25.0672 0000330 179.2842 180.8015 15.40731197  5473
STARLINK-35891          
1 67045U 25294R   26008.16668980  .00006515  00000+0  16316-3 0  9990
2 67045  43.0004  23.9325 0000843 269.9073 180.3540 15.40685888  4457
STARLINK-35721          
1 67046U 25294S   26008.16668980 -.01628027  00000+0 -41816-1 0  9993
2 67046  43.0005  23.8756 0001695 273.5782 200.8978 15.41897959  4537
STARLINK-35779          
1 67047U 25294T   26008.16668980  .00005693  00000+0  14347-3 0  9990
2 67047  43.0009  24.2047 0001014 256.8139  81.4885 15.40692205  4339
STARLINK-35905          
1 67048U 25294U   26008.04543747  .00065281  00000+0  15541-2 0  9996
2 67048  43.0009  24.9619 0001121 266.3386  93.7343 15.40750391  5473
